start=new Date('2021-11-21T00:00:00.000Z').valueOf();
sats=[{"MEAN_MOTION":"15.73552228","SEMIMAJOR_AXIS":"6726.891","MEAN_MOTION_DOT":"0.00797349","ARG_OF_PERICENTER":"2.5263","OBJECT_NAME":"STARLINK-2311","EPHEMERIS_TYPE":"0","PERIOD":"91.513","CLASSIFICATION_TYPE":"U","DECAY_DATE":null,"GP_ID":"190141407","MEAN_ELEMENT_THEORY":"SGP4","TLE_LINE1":"1 47987U 21024L   21324.58334491  .00797349  00000-0  50882-2 0  9997","SITE":"AFETR","BSTAR":"0.00508820000000","MEAN_MOTION_DDOT":"0.0000000000000","INCLINATION":"53.0545","ELEMENT_SET_NO":"999","CENTER_NAME":"EARTH","FILE":"3220049","APOAPSIS":"351.661","TIME_SYSTEM":"UTC","ECCENTRICITY":"0.00043180","NORAD_CAT_ID":"47987","OBJECT_TYPE":"PAYLOAD","RCS_SIZE":"LARGE","RA_OF_ASC_NODE":"85.4897","COUNTRY_CODE":"US","PERIAPSIS":"345.851","LAUNCH_DATE":"2021-03-24","TLE_LINE2":"2 47987  53.0545  85.4897 0004318   2.5263 195.4059 15.73552228  3695","EPOCH":"2021-11-20T14:00:01.000224","OBJECT_ID":"2021-024L","REV_AT_EPOCH":"369","REF_FRAME":"TEME","MEAN_ANOMALY":"195.4059"},{"CLASSIFICATION_TYPE":"U","PERIOD":"95.592","GP_ID":"190142658","DECAY_DATE":null,"SEMIMAJOR_AXIS":"6925.337","MEAN_MOTION_DOT":"0.00000701","MEAN_MOTION":"15.06403768","EPHEMERIS_TYPE":"0","ARG_OF_PERICENTER":"77.8589","OBJECT_NAME":"STARLINK-2306","MEAN_MOTION_DDOT":"0.0000000000000","ELEMENT_SET_NO":"999","CENTER_NAME":"EARTH","APOAPSIS":"548.458","FILE":"3220049","INCLINATION":"53.0560","MEAN_ELEMENT_THEORY":"SGP4","BSTAR":"0.00006595200000","TLE_LINE1":"1 47988U 21024M   21324.29346180  .00000701  00000-0  65952-4 0  9999","SITE":"AFETR","OBJECT_TYPE":"PAYLOAD","RA_OF_ASC_NODE":"161.4023","RCS_SIZE":"LARGE","TIME_SYSTEM":"UTC","NORAD_CAT_ID":"47988","ECCENTRICITY":"0.00018140","REV_AT_EPOCH":"3815","OBJECT_ID":"2021-024M","REF_FRAME":"TEME","MEAN_ANOMALY":"282.2604","LAUNCH_DATE":"2021-03-24","COUNTRY_CODE":"US","PERIAPSIS":"545.946","EPOCH":"2021-11-20T07:02:35.099520","TLE_LINE2":"2 47988  53.0560 161.4023 0001814  77.8589 282.2604 15.06403768 38153"},{"RA_OF_ASC_NODE":"95.0876","RCS_SIZE":"MEDIUM","OBJECT_TYPE":"PAYLOAD","NORAD_CAT_ID":"47989","ECCENTRICITY":"0.00015570","TIME_SYSTEM":"UTC","REF_FRAME":"TEME","MEAN_ANOMALY":"19.9685","REV_AT_EPOCH":"363","OBJECT_ID":"2021-024N","EPOCH":"2021-11-20T14:00:01.000224","TLE_LINE2":"2 47989  53.0538  95.0876 0001557  55.6630  19.9685 15.06402645  3634","LAUNCH_DATE":"2021-03-24","COUNTRY_CODE":"US","PERIAPSIS":"546.127","GP_ID":"190142409","DECAY_DATE":null,"CLASSIFICATION_TYPE":"U","PERIOD":"95.592","EPHEMERIS_TYPE":"0","ARG_OF_PERICENTER":"55.6630","OBJECT_NAME":"STARLINK-2305","SEMIMAJOR_AXIS":"6925.340","MEAN_MOTION_DOT":"-0.00029636","MEAN_MOTION":"15.06402645","ELEMENT_SET_NO":"999","CENTER_NAME":"EARTH","APOAPSIS":"548.284","FILE":"3220049","INCLINATION":"53.0538","MEAN_MOTION_DDOT":"0.0000000000000","BSTAR":"-0.00197880000000","TLE_LINE1":"1 47989U 21024N   21324.58334491 -.00029636  00000-0 -19788-2 0  9998","SITE":"AFETR","MEAN_ELEMENT_THEORY":"SGP4"},{"MEAN_MOTION_DDOT":"0.0000000000000","ELEMENT_SET_NO":"999","CENTER_NAME":"EARTH","FILE":"3220109","APOAPSIS":"548.096","INCLINATION":"53.0507","MEAN_ELEMENT_THEORY":"SGP4","BSTAR":"-0.00058950000000","TLE_LINE1":"1 47990U 21024P   21324.91667824 -.00009049  00000-0 -58950-3 0  9997","SITE":"AFETR","CLASSIFICATION_TYPE":"U","PERIOD":"95.593","GP_ID":"190145058","DECAY_DATE":null,"SEMIMAJOR_AXIS":"6925.372","MEAN_MOTION_DOT":"-0.00009049","MEAN_MOTION":"15.06392242","EPHEMERIS_TYPE":"0","ARG_OF_PERICENTER":"87.9415","OBJECT_NAME":"STARLINK-2307","REV_AT_EPOCH":"3868","OBJECT_ID":"2021-024P","REF_FRAME":"TEME","MEAN_ANOMALY":"251.2285","LAUNCH_DATE":"2021-03-24","COUNTRY_CODE":"US","PERIAPSIS":"546.379","EPOCH":"2021-11-20T22:00:00.999936","TLE_LINE2":"2 47990  53.0507  93.6369 0001240  87.9415 251.2285 15.06392242 38682","OBJECT_TYPE":"PAYLOAD","RA_OF_ASC_NODE":"93.6369","RCS_SIZE":"LARGE","TIME_SYSTEM":"UTC","NORAD_CAT_ID":"47990","ECCENTRICITY":"0.00012400"},{"BSTAR":"0.00145460000000","TLE_LINE1":"1 47991U 21024Q   21324.91667824  .00020515  00000-0  14546-2 0  9999","SITE":"AFETR","MEAN_ELEMENT_THEORY":"SGP4","ELEMENT_SET_NO":"999","CENTER_NAME":"EARTH","FILE":"3220164","APOAPSIS":"553.233","INCLINATION":"53.0538","MEAN_MOTION_DDOT":"0.0000000000000","EPHEMERIS_TYPE":"0","ARG_OF_PERICENTER":"70.8434","OBJECT_NAME":"STARLINK-2279","SEMIMAJOR_AXIS":"6930.378","MEAN_MOTION_DOT":"0.00020515","MEAN_MOTION":"15.04760645","GP_ID":"190146662","DECAY_DATE":null,"CLASSIFICATION_TYPE":"U","PERIOD":"95.696","EPOCH":"2021-11-20T22:00:00.999936","TLE_LINE2":"2 47991  53.0538 107.5277 0001429  70.8434  45.3171 15.04760645 38490","LAUNCH_DATE":"2021-03-24","COUNTRY_CODE":"US","PERIAPSIS":"551.252","REF_FRAME":"TEME","MEAN_ANOMALY":"45.3171","REV_AT_EPOCH":"3849","OBJECT_ID":"2021-024Q","NORAD_CAT_ID":"47991","ECCENTRICITY":"0.00014290","TIME_SYSTEM":"UTC","RA_OF_ASC_NODE":"107.5277","RCS_SIZE":"LARGE","OBJECT_TYPE":"PAYLOAD"},{"TLE_LINE2":"2 47992  53.0551 103.5922 0002148  65.5563 143.7579 15.06403124 38552","EPOCH":"2021-11-20T22:00:00.999936","PERIAPSIS":"545.716","COUNTRY_CODE":"US","LAUNCH_DATE":"2021-03-24","MEAN_ANOMALY":"143.7579","REF_FRAME":"TEME","OBJECT_ID":"2021-024R","REV_AT_EPOCH":"3855","ECCENTRICITY":"0.00021480","NORAD_CAT_ID":"47992","TIME_SYSTEM":"UTC","RCS_SIZE":"LARGE","RA_OF_ASC_NODE":"103.5922","OBJECT_TYPE":"PAYLOAD","SITE":"AFETR","TLE_LINE1":"1 47992U 21024R   21324.91667824  .00012314  00000-0  84408-3 0  9993","BSTAR":"0.00084408000000","MEAN_ELEMENT_THEORY":"SGP4","INCLINATION":"53.0551","APOAPSIS":"548.692","FILE":"3220164","ELEMENT_SET_NO":"999","CENTER_NAME":"EARTH","MEAN_MOTION_DDOT":"0.0000000000000","OBJECT_NAME":"STARLINK-2229","ARG_OF_PERICENTER":"65.5563","EPHEMERIS_TYPE":"0","MEAN_MOTION":"15.06403124","MEAN_MOTION_DOT":"0.00012314","SEMIMAJOR_AXIS":"6925.339","DECAY_DATE":null,"GP_ID":"190146313","PERIOD":"95.592","CLASSIFICATION_TYPE":"U"},{"BSTAR":"0.00005585600000","TLE_LINE1":"1 47993U 21024S   21324.49575022  .00000550  00000-0  55856-4 0  9990","SITE":"AFETR","MEAN_ELEMENT_THEORY":"SGP4","ELEMENT_SET_NO":"999","CENTER_NAME":"EARTH","FILE":"3220049","APOAPSIS":"548.337","INCLINATION":"53.0551","MEAN_MOTION_DDOT":"0.0000000000000","EPHEMERIS_TYPE":"0","ARG_OF_PERICENTER":"89.1717","OBJECT_NAME":"STARLINK-2273","SEMIMAJOR_AXIS":"6925.378","MEAN_MOTION_DOT":"0.00000550","MEAN_MOTION":"15.06390514","GP_ID":"190142909","DECAY_DATE":null,"CLASSIFICATION_TYPE":"U","PERIOD":"95.593","EPOCH":"2021-11-20T11:53:52.819008","TLE_LINE2":"2 47993  53.0551 145.4919 0001580  89.1717 270.9453 15.06390514 38457","LAUNCH_DATE":"2021-03-24","COUNTRY_CODE":"US","PERIAPSIS":"546.148","REF_FRAME":"TEME","MEAN_ANOMALY":"270.9453","REV_AT_EPOCH":"3845","OBJECT_ID":"2021-024S","NORAD_CAT_ID":"47993","ECCENTRICITY":"0.00015800","TIME_SYSTEM":"UTC","RA_OF_ASC_NODE":"145.4919","RCS_SIZE":"LARGE","OBJECT_TYPE":"PAYLOAD"},{"BSTAR":"0.00017630000000","SITE":"AFETR","TLE_LINE1":"1 47994U 21024T   21324.69891625  .00002346  00000-0  17630-3 0  9995","MEAN_ELEMENT_THEORY":"SGP4","APOAPSIS":"548.548","FILE":"3220164","ELEMENT_SET_NO":"999","CENTER_NAME":"EARTH","INCLINATION":"53.0545","MEAN_MOTION_DDOT":"0.0000000000000","EPHEMERIS_TYPE":"0","OBJECT_NAME":"STARLINK-2290","ARG_OF_PERICENTER":"73.6750","MEAN_MOTION_DOT":"0.00002346","SEMIMAJOR_AXIS":"6925.325","MEAN_MOTION":"15.06407822","GP_ID":"190146656","DECAY_DATE":null,"CLASSIFICATION_TYPE":"U","PERIOD":"95.592","EPOCH":"2021-11-20T16:46:26.364000","TLE_LINE2":"2 47994  53.0545 159.5740 0001962  73.6750 286.4455 15.06407822 37755","LAUNCH_DATE":"2021-03-24","PERIAPSIS":"545.831","COUNTRY_CODE":"US","MEAN_ANOMALY":"286.4455","REF_FRAME":"TEME","REV_AT_EPOCH":"3775","OBJECT_ID":"2021-024T","NORAD_CAT_ID":"47994","ECCENTRICITY":"0.00019620","TIME_SYSTEM":"UTC","RA_OF_ASC_NODE":"159.5740","RCS_SIZE":"LARGE","OBJECT_TYPE":"PAYLOAD"},{"MEAN_ANOMALY":"287.8608","REF_FRAME":"TEME","REV_AT_EPOCH":"3863","OBJECT_ID":"2021-024U","EPOCH":"2021-11-20T03:30:55.327680","TLE_LINE2":"2 47995  53.0639 127.0349 0001452  72.2539 287.8608 15.06390888 38635","LAUNCH_DATE":"2021-03-24","PERIAPSIS":"546.236","COUNTRY_CODE":"US","RA_OF_ASC_NODE":"127.0349","RCS_SIZE":"MEDIUM","OBJECT_TYPE":"PAYLOAD","NORAD_CAT_ID":"47995","ECCENTRICITY":"0.00014520","TIME_SYSTEM":"UTC","APOAPSIS":"548.247","FILE":"3220049","ELEMENT_SET_NO":"999","CENTER_NAME":"EARTH","INCLINATION":"53.0639","MEAN_MOTION_DDOT":"0.0000000000000","BSTAR":"-0.00006858400000","SITE":"AFETR","TLE_LINE1":"1 47995U 21024U   21324.14647370 -.00001303  00000-0 -68584-4 0  9991","MEAN_ELEMENT_THEORY":"SGP4","GP_ID":"190141408","DECAY_DATE":null,"CLASSIFICATION_TYPE":"U","PERIOD":"95.593","EPHEMERIS_TYPE":"0","OBJECT_NAME":"STARLINK-2309","ARG_OF_PERICENTER":"72.2539","MEAN_MOTION_DOT":"-0.00001303","SEMIMAJOR_AXIS":"6925.376","MEAN_MOTION":"15.06390888"},{"OBJECT_NAME":"STARLINK-2260","ARG_OF_PERICENTER":"54.8087","EPHEMERIS_TYPE":"0","MEAN_MOTION":"15.41874267","MEAN_MOTION_DOT":"-0.00670535","SEMIMAJOR_AXIS":"6818.715","DECAY_DATE":null,"GP_ID":"190146324","PERIOD":"93.393","CLASSIFICATION_TYPE":"U","SITE":"AFETR","TLE_LINE1":"1 47996U 21024V   21324.91667824 -.00670535  00000-0 -16732-1 0  9997","BSTAR":"-0.01673200000000","MEAN_ELEMENT_THEORY":"SGP4","INCLINATION":"53.0433","FILE":"3220178","APOAPSIS":"441.498","CENTER_NAME":"EARTH","ELEMENT_SET_NO":"999","MEAN_MOTION_DDOT":"0.0000000000000","ECCENTRICITY":"0.00013460","NORAD_CAT_ID":"47996","TIME_SYSTEM":"UTC","RCS_SIZE":"LARGE","RA_OF_ASC_NODE":"86.7442","OBJECT_TYPE":"PAYLOAD","TLE_LINE2":"2 47996  53.0433  86.7442 0001346  54.8087 276.7803 15.41874267 38786","EPOCH":"2021-11-20T22:00:00.999936","PERIAPSIS":"439.662","COUNTRY_CODE":"US","LAUNCH_DATE":"2021-03-24","MEAN_ANOMALY":"276.7803","REF_FRAME":"TEME","OBJECT_ID":"2021-024V","REV_AT_EPOCH":"3878"}];
